CCSDS_OEM_VERS = 1.0
CREATION_DATE  = 2017-05-11T11:13:12
ORIGINATOR     = GMAT USER

META_START
OBJECT_NAME          = MOPSSat_alt_35785_km_RAAN_90_039
OBJECT_ID            = SatId
CENTER_NAME          = Earth
REF_FRAME            = EME2000
TIME_SYSTEM          = UTC
START_TIME           = 2017-01-01T00:00:00.000
USEABLE_START_TIME   = 2017-01-01T00:00:00.000
USEABLE_STOP_TIME    = 2017-01-02T00:00:00.000
STOP_TIME            = 2017-01-02T00:00:00.000
INTERPOLATION        = Lagrange
INTERPOLATION_DEGREE = 7 
META_STOP


                                                                                   

2017-01-01T12:40:50.000   7.734500608375488e+03  -4.142181696372684e+04  -1.364357527169417e+03   2.975202742082105e+00   5.730308952175189e-01  -5.246611760458277e-01
2017-01-01T12:41:00.000   7.764250576944252e+03  -4.141607563852952e+04  -1.369603775859262e+03   2.974790591765779e+00   5.752340711130159e-01  -5.245884949269782e-01
2017-01-01T12:41:10.000   7.793996415788682e+03  -4.141031228315986e+04  -1.374849296288098e+03   2.974376859014854e+00   5.774369412628680e-01  -5.245155347419459e-01
2017-01-01T12:41:20.000   7.823738109118460e+03  -4.140452690067560e+04  -1.380094085671263e+03   2.973961544048603e+00   5.796395044973434e-01  -5.244422955293870e-01
2017-01-01T12:41:30.000   7.853475641124498e+03  -4.139871949414980e+04  -1.385338141220786e+03   2.973544647087402e+00   5.818417596453207e-01  -5.243687773281523e-01
2017-01-01T12:41:40.000   7.883208996069433e+03  -4.139289006665412e+04  -1.390581460161344e+03   2.973126168351524e+00   5.840437055409896e-01  -5.242949801770735e-01
2017-01-01T12:41:50.000   7.912938158252326e+03  -4.138703862126392e+04  -1.395824039724036e+03   2.972706108061507e+00   5.862453410212364e-01  -5.242209041150314e-01
2017-01-01T12:42:00.000   7.942663111992271e+03  -4.138116516106288e+04  -1.401065877143495e+03   2.972284466438495e+00   5.884466649244305e-01  -5.241465491810107e-01
2017-01-01T12:42:10.000   7.972383841592815e+03  -4.137526968914997e+04  -1.406306969651614e+03   2.971861243704725e+00   5.906476760877902e-01  -5.240719154141904e-01
2017-01-01T12:42:20.000   8.002100331325106e+03  -4.136935220864148e+04  -1.411547314474567e+03   2.971436440083679e+00   5.928483733461328e-01  -5.239970028539698e-01
2017-01-01T12:42:30.000   8.031812565393198e+03  -4.136341272267958e+04  -1.416786908826701e+03   2.971010055800698e+00   5.950487555293069e-01  -5.239218115400741e-01
2017-01-01T12:42:40.000   8.061520528024206e+03  -4.135745123441355e+04  -1.422025749926428e+03   2.970582091081635e+00   5.972488214688683e-01  -5.238463415123202e-01
2017-01-01T12:42:50.000   8.091224203077282e+03  -4.135146774708051e+04  -1.427263834927270e+03   2.970152546158650e+00   5.994485699691227e-01  -5.237705928116374e-01
2017-01-01T12:43:00.000   8.120923574517571e+03  -4.134546226390819e+04  -1.432501161001446e+03   2.969721421263229e+00   6.016479998422246e-01  -5.236945654788351e-01
2017-01-01T12:43:10.000   8.150618626239935e+03  -4.133943478815072e+04  -1.437737725308772e+03   2.969288716628757e+00   6.038471098951219e-01  -5.236182595550580e-01
2017-01-01T12:43:20.000   8.180309342752044e+03  -4.133338532295038e+04  -1.442973525117138e+03   2.968854432480587e+00   6.060458989801466e-01  -5.235416750800349e-01
2017-01-01T12:43:30.000   8.209995708492996e+03  -4.132731387147534e+04  -1.448208557682334e+03   2.968418569045935e+00   6.082443659445500e-01  -5.234648120938223e-01
2017-01-01T12:43:40.000   8.239677707987779e+03  -4.132122043688890e+04  -1.453442820275302e+03   2.967981126551662e+00   6.104425096419444e-01  -5.233876706364153e-01
2017-01-01T12:43:50.000   8.269355325462273e+03  -4.131510502242530e+04  -1.458676310114235e+03   2.967542105229733e+00   6.126403289037913e-01  -5.233102507487076e-01
2017-01-01T12:44:00.000   8.299028545129284e+03  -4.130896763133432e+04  -1.463909024415020e+03   2.967101505313220e+00   6.148378225605821e-01  -5.232325524717892e-01
2017-01-01T12:44:10.000   8.328697351188292e+03  -4.130280826687998e+04  -1.469140960391195e+03   2.966659327036227e+00   6.170349894418222e-01  -5.231545758469315e-01
2017-01-01T12:44:20.000   8.358361727540783e+03  -4.129662693240278e+04  -1.474372115203750e+03   2.966215570638339e+00   6.192318283549475e-01  -5.230763209163729e-01
2017-01-01T12:44:30.000   8.388021658173951e+03  -4.129042363123706e+04  -1.479602486028785e+03   2.965770236358710e+00   6.214283381137408e-01  -5.229977877222755e-01
2017-01-01T12:44:40.000   8.417677127009470e+03  -4.128419836674321e+04  -1.484832070030848e+03   2.965323324438359e+00   6.236245175271317e-01  -5.229189763071307e-01
2017-01-01T12:44:50.000   8.447328118572754e+03  -4.127795114216724e+04  -1.490060864480954e+03   2.964874835110098e+00   6.258203654487611e-01  -5.228398867119823e-01
2017-01-01T12:45:00.000   8.476974617323676e+03  -4.127168196078106e+04  -1.495288866638557e+03   2.964424768608597e+00   6.280158807274151e-01  -5.227605189782014e-01
2017-01-01T12:45:10.000   8.506616607807990e+03  -4.126539082585106e+04  -1.500516073778259e+03   2.963973125168130e+00   6.302110622182389e-01  -5.226808731470901e-01
2017-01-01T12:45:20.000   8.536254074272782e+03  -4.125907774071654e+04  -1.505742483121993e+03   2.963519905028215e+00   6.324059087542599e-01  -5.226009492608742e-01
2017-01-01T12:45:30.000   8.565887000952174e+03  -4.125274270873251e+04  -1.510968091889405e+03   2.963065108429485e+00   6.346004191675448e-01  -5.225207473619775e-01
2017-01-01T12:45:40.000   8.595515372067066e+03  -4.124638573326827e+04  -1.516192897297805e+03   2.962608735613608e+00   6.367945922891793e-01  -5.224402674930054e-01
2017-01-01T12:45:50.000   8.625139171540843e+03  -4.124000681777155e+04  -1.521416896512047e+03   2.962150786827884e+00   6.389884269282182e-01  -5.223595096975567e-01
2017-01-01T12:46:00.000   8.654758383382574e+03  -4.123360596568338e+04  -1.526640086712086e+03   2.961691262319131e+00   6.411819219000590e-01  -5.222784740191451e-01
2017-01-01T12:46:10.000   8.684372991533102e+03  -4.122718318047192e+04  -1.531862465065851e+03   2.961230162336115e+00   6.433750760150467e-01  -5.221971605016283e-01
2017-01-01T12:46:20.000   8.713982980544581e+03  -4.122073846548508e+04  -1.537084028849069e+03   2.960767487118974e+00   6.455678881287977e-01  -5.221155691873418e-01
2017-01-01T12:46:30.000   8.743588334899188e+03  -4.121427182409810e+04  -1.542304775325131e+03   2.960303236909804e+00   6.477603570917465e-01  -5.220337001189664e-01
2017-01-01T12:46:40.000   8.773189039185074e+03  -4.120778325967555e+04  -1.547524701776110e+03   2.959837411949940e+00   6.499524817621734e-01  -5.219515533390497e-01
2017-01-01T12:46:50.000   8.802785077623183e+03  -4.120127277567264e+04  -1.552743805419328e+03   2.959370012487223e+00   6.521442609711655e-01  -5.218691288912857e-01
2017-01-01T12:47:00.000   8.832376434457807e+03  -4.119474037555201e+04  -1.557962083476224e+03   2.958901038770030e+00   6.543356935515380e-01  -5.217864268194627e-01
2017-01-01T12:47:10.000   8.861963093869410e+03  -4.118818606280218e+04  -1.563179533156980e+03   2.958430491048597e+00   6.565267783313791e-01  -5.217034471676982e-01
2017-01-01T12:47:20.000   8.891545039998653e+03  -4.118160984093410e+04  -1.568396151664759e+03   2.957958369574768e+00   6.587175141358275e-01  -5.216201899803918e-01
2017-01-01T12:47:30.000   8.921122256975539e+03  -4.117501171347313e+04  -1.573611936200844e+03   2.957484674601428e+00   6.609078997892343e-01  -5.215366553021273e-01
2017-01-01T12:47:40.000   8.950694728930175e+03  -4.116839168395692e+04  -1.578826883966538e+03   2.957009406382338e+00   6.630979341159559e-01  -5.214528431776431e-01
2017-01-01T12:47:50.000   8.980262440098661e+03  -4.116174975591238e+04  -1.584040992181834e+03   2.956532565170498e+00   6.652876159482001e-01  -5.213687536515434e-01
2017-01-01T12:48:00.000   9.009825374752425e+03  -4.115508593287066e+04  -1.589254258072953e+03   2.956054151219207e+00   6.674769441207865e-01  -5.212843867684848e-01
2017-01-01T12:48:10.000   9.039383517198234e+03  -4.114840021836725e+04  -1.594466678872351e+03   2.955574164782080e+00   6.696659174711556e-01  -5.211997425731798e-01
2017-01-01T12:48:20.000   9.068936851848519e+03  -4.114169261592526e+04  -1.599678251831117e+03   2.955092606111843e+00   6.718545348445710e-01  -5.211148211101840e-01
2017-01-01T12:48:30.000   9.098485363115822e+03  -4.113496312907992e+04  -1.604888974200356e+03   2.954609475462090e+00   6.740427950863029e-01  -5.210296224242069e-01
2017-01-01T12:48:40.000   9.128029035402164e+03  -4.112821176138117e+04  -1.610098843229320e+03   2.954124773087479e+00   6.762306970408429e-01  -5.209441465601445e-01
2017-01-01T12:48:50.000   9.157567853069329e+03  -4.112143851639910e+04  -1.615307856160167e+03   2.953638499244105e+00   6.784182395497027e-01  -5.208583935631466e-01
2017-01-01T12:49:00.000   9.187101800415649e+03  -4.111464339773082e+04  -1.620516010223861e+03   2.953150654190017e+00   6.806054214496929e-01  -5.207723634787084e-01
2017-01-01T12:49:10.000   9.216630861762687e+03  -4.110782640898000e+04  -1.625723302655467e+03   2.952661238183727e+00   6.827922415793459e-01  -5.206860563524053e-01
2017-01-01T12:49:20.000   9.246155021066661e+03  -4.110098755384875e+04  -1.630929730625621e+03   2.952170251490819e+00   6.849786987501377e-01  -5.205994722310610e-01
2017-01-01T12:49:30.000   9.275674262389488e+03  -4.109412683602663e+04  -1.636135291323597e+03   2.951677694375977e+00   6.871647917813692e-01  -5.205126111613397e-01
2017-01-01T12:49:40.000   9.305188569723543e+03  -4.108724425923177e+04  -1.641339981926409e+03   2.951183567105932e+00   6.893505194871928e-01  -5.204254731902672e-01
2017-01-01T12:49:50.000   9.334697927670657e+03  -4.108033982705265e+04  -1.646543799718544e+03   2.950687869938116e+00   6.915358807268943e-01  -5.203380583632295e-01
